[{"OBJECT_NAME":"CHECKMATE 6","OBJECT_ID":"2023-050D","EPOCH":"2026-03-09T16:53:29.113152","MEAN_MOTION":13.85137689,"ECCENTRICITY":0.00066075,"INCLINATION":81.0077,"RA_OF_ASC_NODE":167.3603,"ARG_OF_PERICENTER":211.3353,"MEAN_ANOMALY":148.741,"EPHEMERIS_TYPE":0,"CLASSIFICATION_TYPE":"U","NORAD_CAT_ID":56165,"ELEMENT_SET_NO":999,"REV_AT_EPOCH":14832,"BSTAR":0.00014178422,"MEAN_MOTION_DOT":1.72e-6,"MEAN_MOTION_DDOT":0},{"OBJECT_NAME":"COSMOS 1275 DEB","OBJECT_ID":"1981-053SW","EPOCH":"2026-03-07T16:43:23.902752","MEAN_MOTION":13.629739,"ECCENTRICITY":0.01272073,"INCLINATION":82.9545,"RA_OF_ASC_NODE":31.4596,"ARG_OF_PERICENTER":160.2287,"MEAN_ANOMALY":17.5225,"EPHEMERIS_TYPE":0,"CLASSIFICATION_TYPE":"U","NORAD_CAT_ID":42182,"ELEMENT_SET_NO":999,"REV_AT_EPOCH":59741,"BSTAR":0.0010205504,"MEAN_MOTION_DOT":8.58e-6,"MEAN_MOTION_DDOT":0}]
